STARLINK-3866           
1 52500U 22049BB  26068.32460305  .00000652  00000+0  59019-4 0  9994
2 52500  53.2180  40.7568 0001453  88.7553 271.3605 15.08842237212472
CURIUM ONE              
1 60242U 24128H   26068.68697111  .00012574  00000+0  74107-3 0  9992
2 60242  61.9790 197.7537 0050891 110.7183 249.9377 15.10847276 91418
