[{"OBJECT_NAME":"STARLINK-3866","OBJECT_ID":"2022-049BB","EPOCH":"2026-03-09T07:47:25.703520","MEAN_MOTION":15.08842237,"ECCENTRICITY":0.00014538,"INCLINATION":53.218,"RA_OF_ASC_NODE":40.7568,"ARG_OF_PERICENTER":88.7553,"MEAN_ANOMALY":271.3605,"EPHEMERIS_TYPE":0,"CLASSIFICATION_TYPE":"U","NORAD_CAT_ID":52500,"ELEMENT_SET_NO":999,"REV_AT_EPOCH":21247,"BSTAR":5.9018623e-5,"MEAN_MOTION_DOT":6.52e-6,"MEAN_MOTION_DDOT":0},{"OBJECT_NAME":"CURIUM ONE","OBJECT_ID":"2024-128H","EPOCH":"2026-03-09T16:29:14.303904","MEAN_MOTION":15.10847276,"ECCENTRICITY":0.00508907,"INCLINATION":61.979,"RA_OF_ASC_NODE":197.7537,"ARG_OF_PERICENTER":110.7183,"MEAN_ANOMALY":249.9377,"EPHEMERIS_TYPE":0,"CLASSIFICATION_TYPE":"U","NORAD_CAT_ID":60242,"ELEMENT_SET_NO":999,"REV_AT_EPOCH":9141,"BSTAR":0.00074106619,"MEAN_MOTION_DOT":0.00012574,"MEAN_MOTION_DDOT":0}]
